start=new Date('2023-01-08T00:00:00.000Z').valueOf();
sats=[{"INCLINATION":"53.0552","BSTAR":"-0.00024350000000","CLASSIFICATION_TYPE":"U","ARG_OF_PERICENTER":"36.0242","MEAN_MOTION_DOT":"-0.00003906","ECCENTRICITY":"0.00023200","FILE":"3735488","TLE_LINE2":"2 48487  53.0552 355.6378 0002320  36.0242 324.0903 15.06393732 91969","PERIAPSIS":"545.626","TLE_LINE1":"1 48487U 21040BM  23007.67799637 -.00003906  00000-0 -24350-3 0  9991","REV_AT_EPOCH":"9196","APOAPSIS":"548.839","REF_FRAME":"TEME","EPOCH":"2023-01-07T16:16:18.886368","EPHEMERIS_TYPE":"0","MEAN_ELEMENT_THEORY":"SGP4","OBJECT_ID":"2021-040BM","COUNTRY_CODE":"US","TIME_SYSTEM":"UTC","MEAN_MOTION_DDOT":"0.0000000000000","PERIOD":"95.593","MEAN_MOTION":"15.06393732","ELEMENT_SET_NO":"999","OBJECT_NAME":"STARLINK-2494","OBJECT_TYPE":"PAYLOAD","DECAY_DATE":null,"NORAD_CAT_ID":"48487","LAUNCH_DATE":"2021-05-09","RA_OF_ASC_NODE":"355.6378","SEMIMAJOR_AXIS":"6925.368","CENTER_NAME":"EARTH","GP_ID":"222422010","RCS_SIZE":"LARGE","MEAN_ANOMALY":"324.0903","SITE":"AFETR"},{"ECCENTRICITY":"0.00018670","MEAN_MOTION_DOT":"-0.00002037","FILE":"3735488","TLE_LINE2":"2 48553  53.0554 285.1508 0001867  35.8438 324.2676 15.06386045 90839","CLASSIFICATION_TYPE":"U","ARG_OF_PERICENTER":"35.8438","EPHEMERIS_TYPE":"0","OBJECT_ID":"2021-041A","MEAN_ELEMENT_THEORY":"SGP4","PERIAPSIS":"545.963","TLE_LINE1":"1 48553U 21041A   23007.78766205 -.00002037  00000-0 -11792-3 0  9993","APOAPSIS":"548.549","REV_AT_EPOCH":"9083","REF_FRAME":"TEME","EPOCH":"2023-01-07T18:54:14.001120","INCLINATION":"53.0554","BSTAR":"-0.00011792000000","DECAY_DATE":null,"LAUNCH_DATE":"2021-05-15","NORAD_CAT_ID":"48553","OBJECT_TYPE":"PAYLOAD","RCS_SIZE":"LARGE","MEAN_ANOMALY":"324.2676","SITE":"AFETR","RA_OF_ASC_NODE":"285.1508","SEMIMAJOR_AXIS":"6925.391","CENTER_NAME":"EARTH","GP_ID":"222423518","MEAN_MOTION":"15.06386045","ELEMENT_SET_NO":"999","COUNTRY_CODE":"US","MEAN_MOTION_DDOT":"0.0000000000000","TIME_SYSTEM":"UTC","PERIOD":"95.593","OBJECT_NAME":"STARLINK-2063"},{"EPOCH":"2023-01-07T19:04:50.858112","REV_AT_EPOCH":"9083","APOAPSIS":"548.264","REF_FRAME":"TEME","PERIAPSIS":"546.239","TLE_LINE1":"1 48554U 21041B   23007.79503308 -.00005098  00000-0 -32369-3 0  9991","MEAN_ELEMENT_THEORY":"SGP4","OBJECT_ID":"2021-041B","EPHEMERIS_TYPE":"0","ARG_OF_PERICENTER":"73.6775","CLASSIFICATION_TYPE":"U","TLE_LINE2":"2 48554  53.0510 285.1243 0001462  73.6775 286.4374 15.06387567 90837","FILE":"3735488","MEAN_MOTION_DOT":"-0.00005098","ECCENTRICITY":"0.00014620","BSTAR":"-0.00032369000000","INCLINATION":"53.0510","CENTER_NAME":"EARTH","GP_ID":"222423769","RA_OF_ASC_NODE":"285.1243","SEMIMAJOR_AXIS":"6925.387","MEAN_ANOMALY":"286.4374","SITE":"AFETR","RCS_SIZE":"LARGE","OBJECT_TYPE":"PAYLOAD","NORAD_CAT_ID":"48554","LAUNCH_DATE":"2021-05-15","DECAY_DATE":null,"OBJECT_NAME":"STARLINK-2139","PERIOD":"95.593","MEAN_MOTION_DDOT":"0.0000000000000","TIME_SYSTEM":"UTC","COUNTRY_CODE":"US","ELEMENT_SET_NO":"999","MEAN_MOTION":"15.06387567"},{"NORAD_CAT_ID":"48555","LAUNCH_DATE":"2021-05-15","DECAY_DATE":null,"OBJECT_TYPE":"PAYLOAD","SITE":"AFETR","MEAN_ANOMALY":"320.0054","RCS_SIZE":"LARGE","GP_ID":"222422518","CENTER_NAME":"EARTH","RA_OF_ASC_NODE":"295.0035","SEMIMAJOR_AXIS":"6925.389","ELEMENT_SET_NO":"999","MEAN_MOTION":"15.06386674","PERIOD":"95.593","TIME_SYSTEM":"UTC","MEAN_MOTION_DDOT":"0.0000000000000","COUNTRY_CODE":"US","OBJECT_NAME":"STARLINK-2145","TLE_LINE2":"2 48555  53.0551 295.0035 0001977  40.1080 320.0054 15.06386674 90693","FILE":"3735488","ECCENTRICITY":"0.00019770","MEAN_MOTION_DOT":"0.00000644","ARG_OF_PERICENTER":"40.1080","CLASSIFICATION_TYPE":"U","OBJECT_ID":"2021-041C","MEAN_ELEMENT_THEORY":"SGP4","EPHEMERIS_TYPE":"0","EPOCH":"2023-01-07T19:45:59.178240","REV_AT_EPOCH":"9069","APOAPSIS":"548.624","REF_FRAME":"TEME","PERIAPSIS":"545.885","TLE_LINE1":"1 48555U 21041C   23007.82360160  .00000644  00000-0  62193-4 0  9992","INCLINATION":"53.0551","BSTAR":"0.00006219300000"},{"ELEMENT_SET_NO":"999","MEAN_MOTION":"15.06383504","COUNTRY_CODE":"US","PERIOD":"95.593","MEAN_MOTION_DDOT":"0.0000000000000","TIME_SYSTEM":"UTC","OBJECT_NAME":"STARLINK-2151","LAUNCH_DATE":"2021-05-15","NORAD_CAT_ID":"48556","DECAY_DATE":null,"OBJECT_TYPE":"PAYLOAD","RCS_SIZE":"LARGE","SITE":"AFETR","MEAN_ANOMALY":"321.4631","SEMIMAJOR_AXIS":"6925.399","RA_OF_ASC_NODE":"295.0483","GP_ID":"222422268","CENTER_NAME":"EARTH","INCLINATION":"53.0568","BSTAR":"-0.00008402900000","MEAN_MOTION_DOT":"-0.00001532","ECCENTRICITY":"0.00018720","TLE_LINE2":"2 48556  53.0568 295.0483 0001872  38.6492 321.4631 15.06383504 90697","FILE":"3735488","CLASSIFICATION_TYPE":"U","ARG_OF_PERICENTER":"38.6492","EPHEMERIS_TYPE":"0","MEAN_ELEMENT_THEORY":"SGP4","OBJECT_ID":"2021-041D","REF_FRAME":"TEME","APOAPSIS":"548.561","REV_AT_EPOCH":"9069","PERIAPSIS":"545.968","TLE_LINE1":"1 48556U 21041D   23007.81254057 -.00001532  00000-0 -84029-4 0  9990","EPOCH":"2023-01-07T19:30:03.505248"},{"DECAY_DATE":null,"LAUNCH_DATE":"2021-05-15","NORAD_CAT_ID":"48557","OBJECT_TYPE":"PAYLOAD","SITE":"AFETR","MEAN_ANOMALY":"308.2441","RCS_SIZE":"LARGE","GP_ID":"222423018","CENTER_NAME":"EARTH","RA_OF_ASC_NODE":"285.3120","SEMIMAJOR_AXIS":"6925.350","MEAN_MOTION":"15.06399464","ELEMENT_SET_NO":"999","MEAN_MOTION_DDOT":"0.0000000000000","TIME_SYSTEM":"UTC","PERIOD":"95.592","COUNTRY_CODE":"US","OBJECT_NAME":"STARLINK-2155","FILE":"3735488","TLE_LINE2":"2 48557  53.0523 285.3120 0002974  51.8816 308.2441 15.06399464 90829","ECCENTRICITY":"0.00029740","MEAN_MOTION_DOT":"0.00011363","ARG_OF_PERICENTER":"51.8816","CLASSIFICATION_TYPE":"U","MEAN_ELEMENT_THEORY":"SGP4","OBJECT_ID":"2021-041E","EPHEMERIS_TYPE":"0","EPOCH":"2023-01-07T18:01:09.234912","PERIAPSIS":"545.156","TLE_LINE1":"1 48557U 21041E   23007.75080133  .00011363  00000-0  78051-3 0  9994","APOAPSIS":"549.275","REF_FRAME":"TEME","REV_AT_EPOCH":"9082","INCLINATION":"53.0523","BSTAR":"0.00078051000000"},{"APOAPSIS":"548.961","REF_FRAME":"TEME","REV_AT_EPOCH":"8996","TLE_LINE1":"1 48558U 21041F   23007.74710879  .00004141  00000-0  29679-3 0  9999","PERIAPSIS":"545.513","EPOCH":"2023-01-07T17:55:50.199456","EPHEMERIS_TYPE":"0","MEAN_ELEMENT_THEORY":"SGP4","OBJECT_ID":"2021-041F","CLASSIFICATION_TYPE":"U","ARG_OF_PERICENTER":"59.9248","ECCENTRICITY":"0.00024890","MEAN_MOTION_DOT":"0.00004141","TLE_LINE2":"2 48558  53.0500 285.3452 0002489  59.9248 300.1988 15.06392412 89968","FILE":"3735488","BSTAR":"0.00029679000000","INCLINATION":"53.0500","RA_OF_ASC_NODE":"285.3452","SEMIMAJOR_AXIS":"6925.372","GP_ID":"222423269","CENTER_NAME":"EARTH","RCS_SIZE":"LARGE","MEAN_ANOMALY":"300.1988","SITE":"AFETR","OBJECT_TYPE":"PAYLOAD","NORAD_CAT_ID":"48558","LAUNCH_DATE":"2021-05-15","DECAY_DATE":null,"OBJECT_NAME":"STARLINK-2166","COUNTRY_CODE":"US","PERIOD":"95.593","MEAN_MOTION_DDOT":"0.0000000000000","TIME_SYSTEM":"UTC","ELEMENT_SET_NO":"999","MEAN_MOTION":"15.06392412"},{"ELEMENT_SET_NO":"999","MEAN_MOTION":"15.06389834","PERIOD":"95.593","TIME_SYSTEM":"UTC","MEAN_MOTION_DDOT":"0.0000000000000","COUNTRY_CODE":"US","OBJECT_NAME":"STARLINK-2167","NORAD_CAT_ID":"48559","LAUNCH_DATE":"2021-05-15","DECAY_DATE":null,"OBJECT_TYPE":"PAYLOAD","SITE":"AFETR","MEAN_ANOMALY":"301.1428","RCS_SIZE":"LARGE","CENTER_NAME":"EARTH","GP_ID":"222422018","SEMIMAJOR_AXIS":"6925.380","RA_OF_ASC_NODE":"285.1864","INCLINATION":"53.0567","BSTAR":"-0.00000840980000","TLE_LINE2":"2 48559  53.0567 285.1864 0001182  58.9677 301.1428 15.06389834 90822","FILE":"3735488","ECCENTRICITY":"0.00011820","MEAN_MOTION_DOT":"-0.00000407","ARG_OF_PERICENTER":"58.9677","CLASSIFICATION_TYPE":"U","MEAN_ELEMENT_THEORY":"SGP4","OBJECT_ID":"2021-041G","EPHEMERIS_TYPE":"0","EPOCH":"2023-01-07T18:47:32.553888","APOAPSIS":"548.063","REV_AT_EPOCH":"9082","REF_FRAME":"TEME","PERIAPSIS":"546.426","TLE_LINE1":"1 48559U 21041G   23007.78301567 -.00000407  00000-0 -84098-5 0  9995"},{"INCLINATION":"53.0536","BSTAR":"-0.00013497000000","ARG_OF_PERICENTER":"72.2811","CLASSIFICATION_TYPE":"U","TLE_LINE2":"2 48561  53.0536 257.1707 0001660  72.2811 287.8359 15.06390528 91192","FILE":"3735488","MEAN_MOTION_DOT":"-0.00002291","ECCENTRICITY":"0.00016600","EPOCH":"2023-01-07T09:35:39.017760","APOAPSIS":"548.392","REF_FRAME":"TEME","REV_AT_EPOCH":"9119","PERIAPSIS":"546.093","TLE_LINE1":"1 48561U 21041J   23007.39975715 -.00002291  00000-0 -13497-3 0  9993","MEAN_ELEMENT_THEORY":"SGP4","OBJECT_ID":"2021-041J","EPHEMERIS_TYPE":"0","PERIOD":"95.593","MEAN_MOTION_DDOT":"0.0000000000000","TIME_SYSTEM":"UTC","COUNTRY_CODE":"US","ELEMENT_SET_NO":"999","MEAN_MOTION":"15.06390528","OBJECT_NAME":"STARLINK-2186","OBJECT_TYPE":"PAYLOAD","NORAD_CAT_ID":"48561","LAUNCH_DATE":"2021-05-15","DECAY_DATE":null,"GP_ID":"222422769","CENTER_NAME":"EARTH","RA_OF_ASC_NODE":"257.1707","SEMIMAJOR_AXIS":"6925.378","SITE":"AFETR","MEAN_ANOMALY":"287.8359","RCS_SIZE":"LARGE"},{"EPHEMERIS_TYPE":"0","OBJECT_ID":"2021-041K","MEAN_ELEMENT_THEORY":"SGP4","PERIAPSIS":"545.958","TLE_LINE1":"1 48562U 21041K   23007.45960617 -.00001444  00000-0 -78053-4 0  9995","APOAPSIS":"548.451","REF_FRAME":"TEME","REV_AT_EPOCH":"9078","EPOCH":"2023-01-07T11:01:49.973088","MEAN_MOTION_DOT":"-0.00001444","ECCENTRICITY":"0.00018000","FILE":"3735488","TLE_LINE2":"2 48562  53.0557 286.6249 0001800  57.3508 302.7654 15.06402817 90781","CLASSIFICATION_TYPE":"U","ARG_OF_PERICENTER":"57.3508","BSTAR":"-0.00007805300000","INCLINATION":"53.0557","RCS_SIZE":"LARGE","SITE":"AFETR","MEAN_ANOMALY":"302.7654","RA_OF_ASC_NODE":"286.6249","SEMIMAJOR_AXIS":"6925.340","CENTER_NAME":"EARTH","GP_ID":"222423519","DECAY_DATE":null,"NORAD_CAT_ID":"48562","LAUNCH_DATE":"2021-05-15","OBJECT_TYPE":"PAYLOAD","OBJECT_NAME":"STARLINK-2187","MEAN_MOTION":"15.06402817","ELEMENT_SET_NO":"999","COUNTRY_CODE":"US","TIME_SYSTEM":"UTC","MEAN_MOTION_DDOT":"0.0000000000000","PERIOD":"95.592"}];
